[
    {
        "Altitude(m)": 605459.0240512161,
        "Argument of Periapsis(deg)": 0.0,
        "Eccentricity": 0.0,
        "Inclination(deg)": 60.0,
        "Latitude(deg)": 27.988198589629672,
        "Longitude(deg)": -12.201470490808418,
        "Mean Anomaly(deg)": 32.7273,
        "RAAN(deg)": 70.0,
        "Satellite Name": "Test1 310",
        "Satellite Number": 310,
        "Semi-Major Axis(m)": 6980739.136638005,
        "Time(s)": 0
    },
    {
        "Altitude(m)": 605535.8152175959,
        "Argument of Periapsis(deg)": 0.00010418945913296404,
        "Eccentricity": 0.0,
        "Inclination(deg)": 60.0,
        "Latitude(deg)": 28.50132875440567,
        "Longitude(deg)": -11.844526663942673,
        "Mean Anomaly(deg)": 33.347406145461825,
        "RAAN(deg)": 69.99957995086027,
        "Satellite Name": "Test1 310",
        "Satellite Number": 310,
        "Semi-Major Axis(m)": 6980739.136638005,
        "Time(s)": 10
    }
]